H1 CPF 01  gfz 2022 06 30 12  6812 terrasarx 
H2 0702601  6201 31698    2022 06 30 12 59 42 2022 07 05 00 00 42   120 1 1  0 0 0
H9
10 0 59762  56142.000000  0    5447034.086   3692738.061   2030330.148
10 0 59762  56262.000000  0    5276893.309   3362178.979   2874116.976
10 0 59762  56382.000000  0    5008224.087   2976673.730   3667294.120
10 0 59762  56502.000000  0    4644851.233   2544662.684   4395906.211
10 0 59762  56622.000000  0    4192416.413   2075318.086   5047147.059
10 0 59762  56742.000000  0    3658285.677   1578349.645   5609585.921
10 0 59762  56862.000000  0    3051420.391   1063801.741   6073366.489
10 0 59762  56982.000000  0    2382219.380    541848.347   6430372.864
10 0 59762  57102.000000  0    1662336.289     22592.663   6674364.106
10 0 59762  57222.000000  0     904474.338   -484127.105   6801079.131
10 0 59762  57342.000000  0     122159.740   -968924.081   6808307.306
10 0 59762  57462.000000  0    -670500.231  -1423035.988   6695923.605
10 0 59762  57582.000000  0   -1459071.154  -1838483.459   6465889.848
10 0 59762  57702.000000  0   -2229052.623  -2208209.913   6122221.127
10 0 59762  57822.000000  0   -2966142.688  -2526201.133   5670921.548
10 0 59762  57942.000000  0   -3656506.288  -2787585.922   5119888.094
10 0 59762  58062.000000  0   -4287040.277  -2988713.250   4478777.058
10 0 59762  58182.000000  0   -4845627.199  -3127203.880   3758838.701
10 0 59762  58302.000000  0   -5321374.260  -3201975.623   2972722.946
10 0 59762  58422.000000  0   -5704833.149  -3213242.590   2134258.869
10 0 59762  58542.000000  0   -5988195.650  -3162488.342   1258208.976
10 0 59762  58662.000000  0   -6165457.875  -3052411.634    360002.890
10 0 59762  58782.000000  0   -6232549.407  -2886846.213   -544541.755
10 0 59762  58902.000000  0   -6187424.814  -2670657.744  -1439507.265
10 0 59762  59022.000000  0   -6030112.423  -2409618.826  -2309165.928
10 0 59762  59142.000000  0   -5762720.565  -2110266.944  -3138262.910
10 0 59762  59262.000000  0   -5389403.292  -1779749.282  -3912287.852
10 0 59762  59382.000000  0   -4916285.739  -1425658.099  -4617729.309
10 0 59762  59502.000000  0   -4351352.737  -1055861.068  -5242307.675
10 0 59762  59622.000000  0   -3704302.592   -678330.104  -5775182.749
10 0 59762  59742.000000  0   -2986370.795   -300973.251  -6207131.903
10 0 59762  59862.000000  0   -2210128.612     68526.917  -6530698.006
10 0 59762  59982.000000  0   -1389259.918    422864.798  -6740306.664
10 0 59762  60102.000000  0    -538320.970    755250.864  -6832351.625
10 0 59762  60222.000000  0     327512.745   1059538.151  -6805249.432
10 0 59762  60342.000000  0    1192709.450   1330331.999  -6659464.016
10 0 59762  60462.000000  0    2041653.781   1563083.678  -6397502.152
10 0 59762  60582.000000  0    2858923.351   1754166.414  -6023874.789
10 0 59762  60702.000000  0    3629565.140   1900931.421  -5545026.514
10 0 59762  60822.000000  0    4339366.489   2001743.786  -4969234.915
10 0 59762  60942.000000  0    4975119.818   2055998.438  -4306479.587
10 0 59762  61062.000000  0    5524874.249   2064114.652  -3568278.991
10 0 59762  61182.000000  0    5978168.045   2027508.884  -2767498.881
10 0 59762  61302.000000  0    6326238.831   1948546.780  -1918134.391
10 0 59762  61422.000000  0    6562204.595   1830474.933  -1035066.267
10 0 59762  61542.000000  0    6681209.999   1677332.846   -133797.862
10 0 59762  61662.000000  0    6680533.619   1493847.168    769823.668
10 0 59762  61782.000000  0    6559651.854   1285311.727   1659892.379
10 0 59762  61902.000000  0    6320262.127   1057455.612   2520732.386
10 0 59762  62022.000000  0    5966258.354    816301.846   3337183.349
10 0 59762  62142.000000  0    5503663.078    568021.871   4094874.593
10 0 59762  62262.000000  0    4940515.702    318788.669   4780482.223
10 0 59762  62382.000000  0    4286724.291     74633.605   5381964.352
10 0 59762  62502.000000  0    3553880.735   -158692.058   5888772.305
10 0 59762  62622.000000  0    2755045.203   -375845.150   6292030.314
10 0 59762  62742.000000  0    1904507.255   -572006.416   6584684.965
10 0 59762  62862.000000  0    1017526.222   -742982.854   6761623.471
10 0 59762  62982.000000  0     110053.951   -885294.486   6819758.101
10 0 59762  63102.000000  0    -801552.749   -996243.393   6758075.355
10 0 59762  63222.000000  0   -1700825.864  -1073964.744   6577651.735
10 0 59762  63342.000000  0   -2571482.036  -1117457.985   6281635.401
10 0 59762  63462.000000  0   -3397715.739  -1126598.048   5875195.484
10 0 59762  63582.000000  0   -4164488.657  -1102127.159   5365439.289
10 0 59762  63702.000000  0   -4857808.958  -1045627.947   4761294.394
10 0 59762  63822.000000  0   -5464994.095   -959476.750   4073357.162
10 0 59762  63942.000000  0   -5974911.107   -846778.372   3313709.811
10 0 59762  64062.000000  0   -6378189.258   -711283.614   2495710.249
10 0 59762  64182.000000  0   -6667403.142   -557291.387   1633757.388
10 0 59762  64302.000000  0   -6837219.314   -389537.560    743032.493
10 0 59762  64422.000000  0   -6884500.307   -213073.697   -160775.900
10 0 59762  64542.000000  0   -6808364.912    -33138.103  -1061757.096
10 0 59762  64662.000000  0   -6610202.117    144977.357  -1944067.551
10 0 59762  64782.000000  0   -6293640.106    316060.456  -2792215.836
10 0 59762  64902.000000  0   -5864472.418    475109.228  -3591341.434
10 0 59762  65022.000000  0   -5330538.792    617456.982  -4327478.510
10 0 59762  65142.000000  0   -4701568.774    738887.827  -4987798.279
10 0 59762  65262.000000  0   -3988991.326    835740.197  -5560826.987
10 0 59762  65382.000000  0   -3205716.720    904996.275  -6036636.349
10 0 59762  65502.000000  0   -2365895.074    944355.010  -6407004.218
10 0 59762  65622.000000  0   -1484658.151    952288.769  -6665545.058
10 0 59762  65742.000000  0    -577846.706    928082.823  -6807809.176
10 0 59762  65862.000000  0     338269.377    871856.136  -6831349.469
10 0 59762  65982.000000  0    1247274.605    784563.909  -6735759.873
10 0 59762  66102.000000  0    2132896.067    667981.576  -6522683.846
10 0 59762  66222.000000  0    2979288.933    524670.646  -6195788.725
10 0 59762  66342.000000  0    3771315.801    357927.142  -5760708.860
10 0 59762  66462.000000  0    4494814.893    171711.925  -5224957.665
10 0 59762  66582.000000  0    5136855.054    -29434.445  -4597809.915
10 0 59762  66702.000000  0    5685973.794   -240491.882  -3890152.145
10 0 59762  66822.000000  0    6132390.713   -456074.260  -3114302.673
10 0 59762  66942.000000  0    6468193.260   -670554.051  -2283804.647
10 0 59762  67062.000000  0    6687490.324   -878195.473  -1413192.799
10 0 59762  67182.000000  0    6786527.625  -1073292.377   -517738.088
10 0 59762  67302.000000  0    6763762.059  -1250308.088    386823.972
10 0 59762  67422.000000  0    6619892.814  -1404013.583   1284576.905
10 0 59762  67542.000000  0    6357846.813  -1529620.781   2159711.719
10 0 59762  67662.000000  0    5982719.582  -1622906.710   2996815.096
10 0 59762  67782.000000  0    5501671.102  -1680324.816   3781148.776
10 0 59762  67902.000000  0    4923781.555  -1699102.406   4498914.287
10 0 59762  68022.000000  0    4259870.664  -1677320.117   5137497.831
10 0 59762  68142.000000  0    3522286.406  -1613971.735   5685691.836
10 0 59762  68262.000000  0    2724666.006  -1509004.396   6133889.406
10 0 59762  68382.000000  0    1881676.471  -1363337.859   6474246.785
10 0 59762  68502.000000  0    1008740.269  -1178863.066   6700815.152
10 0 59762  68622.000000  0     121749.729   -958418.879   6809638.921
10 0 59762  68742.000000  0    -763223.045   -705747.979   6798819.300
10 0 59762  68862.000000  0   -1630216.047   -425433.350   6668544.537
10 0 59762  68982.000000  0   -2463663.743   -122815.458   6421086.791
10 0 59762  69102.000000  0   -3248675.567    196108.544   6060765.827
10 0 59762  69222.000000  0   -3971303.514    524801.831   5593879.302
10 0 59762  69342.000000  0   -4618794.423    856319.214   5028598.777
10 0 59762  69462.000000  0   -5179821.573   1183450.863   4374832.748
10 0 59762  69582.000000  0   -5644691.324   1498875.880   3644057.164
10 0 59762  69702.000000  0   -6005519.048   1795322.036   2849116.456
10 0 59762  69822.000000  0   -6256371.862   2065728.410   2003998.245
10 0 59762  69942.000000  0   -6393374.708   2303407.078   1123584.735
10 0 59762  70062.000000  0   -6414775.763   2502200.299    223384.107
10 0 59762  70182.000000  0   -6320968.143   2656627.884   -680751.020
10 0 59762  70302.000000  0   -6114468.502   2762021.327  -1572911.759
10 0 59762  70422.000000  0   -5799853.019   2814641.937  -2437421.410
10 0 59762  70542.000000  0   -5383651.485   2811779.616  -3259118.956
10 0 59762  70662.000000  0   -4874203.018   2751828.807  -4023628.951
10 0 59762  70782.000000  0   -4281478.969   2634341.311  -4717613.120
10 0 59762  70902.000000  0   -3616877.319   2460054.636  -5328998.837
10 0 59762  71022.000000  0   -2892995.108   2230896.381  -5847180.455
10 0 59762  71142.000000  0   -2123385.034   1949965.202  -6263193.558
10 0 59762  71262.000000  0   -1322298.004   1621487.905  -6569859.415
10 0 59762  71382.000000  0    -504420.004   1250754.403  -6761896.395
10 0 59762  71502.000000  0     315392.801    844032.156  -6836001.036
10 0 59762  71622.000000  0    1122376.599    408462.134  -6790899.077
10 0 59762  71742.000000  0    1902120.702    -48064.044  -6627366.656
10 0 59762  71862.000000  0    2640819.059   -517043.707  -6348217.202
10 0 59762  71982.000000  0    3325510.438   -989516.986  -5958258.859
10 0 59762  72102.000000  0    3944303.690  -1456233.032  -5464219.245
10 0 59762  72222.000000  0    4486585.515  -1907826.849  -4874641.372
10 0 59762  72342.000000  0    4943207.809  -2335005.082  -4199747.096
10 0 59762  72462.000000  0    5306649.156  -2728735.450  -3451270.169
10 0 59762  72582.000000  0    5571148.387  -3080436.498  -2642260.598
99
